<?xml version="1.0" encoding="UTF-8"?>
<kml xmlns="http://www.opengis.net/kml/2.2">
<Document>
  <Placemark>
    <name>Circle</name>
    <description><![CDATA[radius 20 km<P>Generated by <a href='http://kml4earth.appspot.com/'>Kml4Earth</a>]]></description>
    <Style>
	<IconStyle>
          <Icon/>
	</IconStyle>
	<LineStyle>
	  <color>ffff0000</color>
	  <width>2</width>
	</LineStyle>
    </Style>
    <LineString>
	<tessellate>1</tessellate>
	<coordinates> 1.545642312419207,43.82862952547843,0.0 1.5429753905041315,43.85546336353448,0.0 1.534806610874541,43.88170929326474,0.0 1.5213117302600814,43.90677988965662,0.0 1.5027867046616274,43.930113321814034,0.0 1.4796415739569844,43.95118606179519,0.0 1.4523916462224145,43.96952478348872,0.0 1.4216461465057721,43.984717167598454,0.0 1.3880945679198586,43.99642135059093,0.0 1.352491032440171,44.004373784983144,0.0 1.3156370314335235,44.0083953150553,0.0 1.278362968566476,44.008395315055296,0.0 1.2415089675598283,44.00437378498315,0.0 1.205905432080141,43.99642135059093,0.0 1.1723538534942277,43.984717167598454,0.0 1.141608353777585,43.96952478348872,0.0 1.1143584260430153,43.95118606179519,0.0 1.0912132953383722,43.930113321814034,0.0 1.0726882697399183,43.90677988965663,0.0 1.0591933891254584,43.88170929326474,0.0 1.0510246094958682,43.85546336353448,0.0 1.048357687580793,43.828629525478426,0.0 1.0512448568383563,43.801807577188285,0.0 1.0596143146259562,43.77559626035417,0.0 1.0732724735738213,43.75057992463013,0.0 1.0919088697439499,43.72731557980413,0.0 1.1151035670976654,43.70632061527066,0.0 1.1423368526293083,43.688061446534064,0.0 1.1730009792389187,43.67294332423273,0.0 1.2064136835894859,43.66130151328274,0.0 1.2418331831141178,43.65339401895134,0.0 1.278474339138212,43.64939600365905,0.0 1.3155256608617882,43.64939600365905,0.0 1.3521668168858816,43.65339401895133,0.0 1.3875863164105138,43.66130151328274,0.0 1.4209990207610812,43.67294332423274,0.0 1.4516631473706918,43.688061446534064,0.0 1.4788964329023342,43.70632061527066,0.0 1.5020911302560498,43.72731557980414,0.0 1.5207275264261784,43.75057992463013,0.0 1.5343856853740436,43.77559626035417,0.0 1.542755143161643,43.801807577188285,0.0 1.545642312419207,43.82862952547843,0.0</coordinates>
    </LineString>
  </Placemark>
  <Placemark>
    <name>center point</name>
    <visibility>0</visibility>
	<Style>
	<IconStyle>
	<Icon>
	 <href>http://maps.google.com/mapfiles/kml/shapes/cross-hairs_highlight.png</href>
	</Icon>
	</IconStyle>
	</Style>
    <Point>
	<coordinates>1.297,43.8289</coordinates>
    </Point>
  </Placemark>
</Document>
</kml>
